{"type": "FeatureCollection", "features": [ {"type": "Feature", "properties": {"norad_id": 66969, "name": "STARLINK-36149", "group": "last-30-days", "lat": -3.5191844248748523, "lon": 84.32755251046326, "alt_km": 377.1728899420268, "timestamp": "2025-12-25T16:53:13.374446+00:00", "meta": {"OBJECT_NAME": "STARLINK-36149", "OBJECT_ID": "2025-288L", "EPOCH": "2025-12-25T06:00:04.000320", "MEAN_MOTION": 15.65577305, "ECCENTRICITY": 0.00015138, "INCLINATION": 43.0004, "RA_OF_ASC_NODE": 90.8215, "ARG_OF_PERICENTER": 270.7855, "MEAN_ANOMALY": 46.222, "EPHEMERIS_TYPE": 0, "CLASSIFICATION_TYPE": "U", "NORAD_CAT_ID": 66969, "ELEMENT_SET_NO": 999, "REV_AT_EPOCH": 384, "BSTAR": -0.021782194, "MEAN_MOTION_DOT": -0.01983602, "MEAN_MOTION_DDOT": 0}, "tle": {"line1": "1 66969U 25288L   25359.25004630 -.01983602  00000+0 -21782-1 0  9996", "line2": "2 66969  43.0004  90.8215 0001513 270.7855  46.2220 15.65577305  3843"}}, "geometry": {"type": "Point", "coordinates": [84.32755251046326, -3.5191844248748523]}}, {"type": "Feature", "properties": {"norad_id": 66970, "name": "STARLINK-35703", "group": "last-30-days", "lat": 1.7061531298199428, "lon": 89.92388008862139, "alt_km": 376.7563263148277, "timestamp": "2025-12-25T16:53:13.374459+00:00", "meta": {"OBJECT_NAME": "STARLINK-35703", "OBJECT_ID": "2025-288M", "EPOCH": "2025-12-25T06:00:04.000320", "MEAN_MOTION": 15.65582461, "ECCENTRICITY": 0.00014558, "INCLINATION": 43.0001, "RA_OF_ASC_NODE": 90.802, "ARG_OF_PERICENTER": 267.6955, "MEAN_ANOMALY": 56.978, "EPHEMERIS_TYPE": 0, "CLASSIFICATION_TYPE": "U", "NORAD_CAT_ID": 66970, "ELEMENT_SET_NO": 999, "REV_AT_EPOCH": 384, "BSTAR": -0.021857879, "MEAN_MOTION_DOT": -0.01989982, "MEAN_MOTION_DDOT": 0}, "tle": {"line1": "1 66970U 25288M   25359.25004630 -.01989982  00000+0 -21858-1 0  9999", "line2": "2 66970  43.0001  90.8020 0001455 267.6955  56.9780 15.65582461  3845"}}, "geometry": {"type": "Point", "coordinates": [89.92388008862139, 1.7061531298199428]}}, {"type": "Feature", "properties": {"norad_id": 66971, "name": "STARLINK-35678", "group": "last-30-days", "lat": -8.709275404162536, "lon": 78.66939797351466, "alt_km": 377.85259631803, "timestamp": "2025-12-25T16:53:13.374469+00:00", "meta": {"OBJECT_NAME": "STARLINK-35678", "OBJECT_ID": "2025-288N", "EPOCH": "2025-12-25T06:00:04.000320", "MEAN_MOTION": 15.65580952, "ECCENTRICITY": 0.00013796, "INCLINATION": 43.0001, "RA_OF_ASC_NODE": 90.8412, "ARG_OF_PERICENTER": 262.3189, "MEAN_ANOMALY": 47.0202, "EPHEMERIS_TYPE": 0, "CLASSIFICATION_TYPE": "U", "NORAD_CAT_ID": 66971, "ELEMENT_SET_NO": 999, "REV_AT_EPOCH": 384, "BSTAR": -0.021839921, "MEAN_MOTION_DOT": -0.01988379, "MEAN_MOTION_DDOT": 0}, "tle": {"line1": "1 66971U 25288N   25359.25004630 -.01988379  00000+0 -21840-1 0  9990", "line2": "2 66971  43.0001  90.8412 0001379 262.3189  47.0202 15.65580952  3840"}}, "geometry": {"type": "Point", "coordinates": [78.66939797351466, -8.709275404162536]}}, {"type": "Feature", "properties": {"norad_id": 66972, "name": "STARLINK-34846", "group": "last-30-days", "lat": -7.417358927995984, "lon": 80.09580137749583, "alt_km": 377.6319794657584, "timestamp": "2025-12-25T16:53:13.374479+00:00", "meta": {"OBJECT_NAME": "STARLINK-34846", "OBJECT_ID": "2025-288P", "EPOCH": "2025-12-25T06:00:04.000320", "MEAN_MOTION": 15.65583244, "ECCENTRICITY": 0.00015213, "INCLINATION": 42.9999, "RA_OF_ASC_NODE": 90.8367, "ARG_OF_PERICENTER": 266.1683, "MEAN_ANOMALY": 45.0845, "EPHEMERIS_TYPE": 0, "CLASSIFICATION_TYPE": "U", "NORAD_CAT_ID": 66972, "ELEMENT_SET_NO": 999, "REV_AT_EPOCH": 384, "BSTAR": -0.021854802, "MEAN_MOTION_DOT": -0.01989842, "MEAN_MOTION_DDOT": 0}, "tle": {"line1": "1 66972U 25288P   25359.25004630 -.01989842  00000+0 -21855-1 0  9993", "line2": "2 66972  42.9999  90.8367 0001521 266.1683  45.0845 15.65583244  3842"}}, "geometry": {"type": "Point", "coordinates": [80.09580137749583, -7.417358927995984]}}, {"type": "Feature", "properties": {"norad_id": 66973, "name": "STARLINK-35778", "group": "last-30-days", "lat": -6.121647109575984, "lon": 81.51293114847, "alt_km": 377.5223760137269, "timestamp": "2025-12-25T16:53:13.374489+00:00", "meta": {"OBJECT_NAME": "STARLINK-35778", "OBJECT_ID": "2025-288Q", "EPOCH": "2025-12-25T06:00:04.000320", "MEAN_MOTION": 15.65581931, "ECCENTRICITY": 0.00014709, "INCLINATION": 43.0001, "RA_OF_ASC_NODE": 90.832, "ARG_OF_PERICENTER": 266.4744, "MEAN_ANOMALY": 46.6971, "EPHEMERIS_TYPE": 0, "CLASSIFICATION_TYPE": "U", "NORAD_CAT_ID": 66973, "ELEMENT_SET_NO": 999, "REV_AT_EPOCH": 384, "BSTAR": -0.021848367, "MEAN_MOTION_DOT": -0.01989195, "MEAN_MOTION_DDOT": 0}, "tle": {"line1": "1 66973U 25288Q   25359.25004630 -.01989195  00000+0 -21848-1 0  9997", "line2": "2 66973  43.0001  90.8320 0001470 266.4744  46.6971 15.65581931  3840"}}, "geometry": {"type": "Point", "coordinates": [81.51293114847, -6.121647109575984]}}, {"type": "Feature", "properties": {"norad_id": 66974, "name": "STARLINK-35780", "group": "last-30-days", "lat": -4.82173451566301, "lon": 82.92374193851998, "alt_km": 377.4199269549963, "timestamp": "2025-12-25T16:53:13.374518+00:00", "meta": {"OBJECT_NAME": "STARLINK-35780", "OBJECT_ID": "2025-288R", "EPOCH": "2025-12-25T06:00:04.000320", "MEAN_MOTION": 15.65582805, "ECCENTRICITY": 0.00014682, "INCLINATION": 43.0002, "RA_OF_ASC_NODE": 90.8274, "ARG_OF_PERICENTER": 266.0822, "MEAN_ANOMALY": 49.0059, "EPHEMERIS_TYPE": 0, "CLASSIFICATION_TYPE": "U", "NORAD_CAT_ID": 66974, "ELEMENT_SET_NO": 999, "REV_AT_EPOCH": 384, "BSTAR": -0.021859623, "MEAN_MOTION_DOT": -0.01990155, "MEAN_MOTION_DDOT": 0}, "tle": {"line1": "1 66974U 25288R   25359.25004630 -.01990155  00000+0 -21860-1 0  9990", "line2": "2 66974  43.0002  90.8274 0001468 266.0822  49.0059 15.65582805  3845"}}, "geometry": {"type": "Point", "coordinates": [82.92374193851998, -4.82173451566301]}}, {"type": "Feature", "properties": {"norad_id": 66975, "name": "STARLINK-35777", "group": "last-30-days", "lat": -2.2129938413926578, "lon": 85.73047817451231, "alt_km": 377.15999333423133, "timestamp": "2025-12-25T16:53:13.374529+00:00", "meta": {"OBJECT_NAME": "STARLINK-35777", "OBJECT_ID": "2025-288S", "EPOCH": "2025-12-25T06:00:04.000320", "MEAN_MOTION": 15.65578568, "ECCENTRICITY": 0.00015727, "INCLINATION": 43.0002, "RA_OF_ASC_NODE": 90.8171, "ARG_OF_PERICENTER": 266.5325, "MEAN_ANOMALY": 52.3908, "EPHEMERIS_TYPE": 0, "CLASSIFICATION_TYPE": "U", "NORAD_CAT_ID": 66975, "ELEMENT_SET_NO": 999, "REV_AT_EPOCH": 384, "BSTAR": -0.021783034, "MEAN_MOTION_DOT": -0.01983805, "MEAN_MOTION_DDOT": 0}, "tle": {"line1": "1 66975U 25288S   25359.25004630 -.01983805  00000+0 -21783-1 0  9999", "line2": "2 66975  43.0002  90.8171 0001572 266.5325  52.3908 15.65578568  3842"}}, "geometry": {"type": "Point", "coordinates": [85.73047817451231, -2.2129938413926578]}}, {"type": "Feature", "properties": {"norad_id": 66976, "name": "STARLINK-35772", "group": "last-30-days", "lat": -27.60829641660357, "lon": -56.527712285909054, "alt_km": 442.3145246687509, "timestamp": "2025-12-25T16:53:13.374544+00:00", "meta": {"OBJECT_NAME": "STARLINK-35772", "OBJECT_ID": "2025-288T", "EPOCH": "2025-12-25T06:00:04.000320", "MEAN_MOTION": 15.4398209, "ECCENTRICITY": 8.553e-05, "INCLINATION": 43.0003, "RA_OF_ASC_NODE": 91.9561, "ARG_OF_PERICENTER": 279.6965, "MEAN_ANOMALY": 300.5383, "EPHEMERIS_TYPE": 0, "CLASSIFICATION_TYPE": "U", "NORAD_CAT_ID": 66976, "ELEMENT_SET_NO": 999, "REV_AT_EPOCH": 384, "BSTAR": -0.047911868, "MEAN_MOTION_DOT": -0.01992589, "MEAN_MOTION_DDOT": 0}, "tle": {"line1": "1 66976U 25288T   25359.25004630 -.01992589  00000+0 -47912-1 0  9991", "line2": "2 66976  43.0003  91.9561 0000855 279.6965 300.5383 15.43982090  3847"}}, "geometry": {"type": "Point", "coordinates": [-56.527712285909054, -27.60829641660357]}}, {"type": "Feature", "properties": {"norad_id": 66977, "name": "STARLINK-35770", "group": "last-30-days", "lat": -0.906505643333658, "lon": 87.13003052471024, "alt_km": 377.0380771397122, "timestamp": "2025-12-25T16:53:13.374556+00:00", "meta": {"OBJECT_NAME": "STARLINK-35770", "OBJECT_ID": "2025-288U", "EPOCH": "2025-12-25T06:00:04.000320", "MEAN_MOTION": 15.6557948, "ECCENTRICITY": 0.00015725, "INCLINATION": 42.9999, "RA_OF_ASC_NODE": 90.8129, "ARG_OF_PERICENTER": 266.5547, "MEAN_ANOMALY": 54.2852, "EPHEMERIS_TYPE": 0, "CLASSIFICATION_TYPE": "U", "NORAD_CAT_ID": 66977, "ELEMENT_SET_NO": 999, "REV_AT_EPOCH": 384, "BSTAR": -0.021795613, "MEAN_MOTION_DOT": -0.01984877, "MEAN_MOTION_DDOT": 0}, "tle": {"line1": "1 66977U 25288U   25359.25004630 -.01984877  00000+0 -21796-1 0  9995", "line2": "2 66977  42.9999  90.8129 0001572 266.5547  54.2852 15.65579480  3849"}}, "geometry": {"type": "Point", "coordinates": [87.13003052471024, -0.906505643333658]}}, {"type": "Feature", "properties": {"norad_id": 66978, "name": "STARLINK-35787", "group": "last-30-days", "lat": 3.0125206736926056, "lon": 91.32565462310899, "alt_km": 376.63590364658467, "timestamp": "2025-12-25T16:53:13.374566+00:00", "meta": {"OBJECT_NAME": "STARLINK-35787", "OBJECT_ID": "2025-288V", "EPOCH": "2025-12-25T06:00:04.000320", "MEAN_MOTION": 15.65582779, "ECCENTRICITY": 0.00015031, "INCLINATION": 43, "RA_OF_ASC_NODE": 90.798, "ARG_OF_PERICENTER": 267.2347, "MEAN_ANOMALY": 59.3556, "EPHEMERIS_TYPE": 0, "CLASSIFICATION_TYPE": "U", "NORAD_CAT_ID": 66978, "ELEMENT_SET_NO": 999, "REV_AT_EPOCH": 384, "BSTAR": -0.021859339, "MEAN_MOTION_DOT": -0.01990158, "MEAN_MOTION_DDOT": 0}, "tle": {"line1": "1 66978U 25288V   25359.25004630 -.01990158  00000+0 -21859-1 0  9995", "line2": "2 66978  43.0000  90.7980 0001503 267.2347  59.3556 15.65582779  3841"}}, "geometry": {"type": "Point", "coordinates": [91.32565462310899, 3.0125206736926056]}}]}